{
    "links": {
        "self": "http://www.neowsapp.com/rest/v1/neo/3762436?api_key=iIulBulltgU6a56xZRHN4H3l9WmuAYTsLGpBGhQ2"
    },
    "id": "3762436",
    "neo_reference_id": "3762436",
    "name": "(2016 UV80)",
    "designation": "2016 UV80",
    "nasa_jpl_url": "http://ssd.jpl.nasa.gov/sbdb.cgi?sstr=3762436",
    "absolute_magnitude_h": 22.9,
    "estimated_diameter": {
        "kilometers": {
            "estimated_diameter_min": 0.0699125232,
            "estimated_diameter_max": 0.1563291544
        },
        "meters": {
            "estimated_diameter_min": 69.9125232246,
            "estimated_diameter_max": 156.3291544087
        },
        "miles": {
            "estimated_diameter_min": 0.0434416145,
            "estimated_diameter_max": 0.097138403
        },
        "feet": {
            "estimated_diameter_min": 229.3718026961,
            "estimated_diameter_max": 512.8909429502
        }
    },
    "is_potentially_hazardous_asteroid": false,
    "close_approach_data": [
        {
            "close_approach_date": "1929-11-13",
            "close_approach_date_full": "1929-Nov-13 00:32",
            "epoch_date_close_approach": -1266535680000,
            "relative_velocity": {
                "kilometers_per_second": "26.2252893651",
                "kilometers_per_hour": "94411.0417145029",
                "miles_per_hour": "58663.349780881"
            },
            "miss_distance": {
                "astronomical": "0.3473088863",
                "lunar": "135.1031567707",
                "kilometers": "51956669.622552181",
                "miles": "32284377.4569788578"
            },
            "orbiting_body": "Earth"
        },
        {
            "close_approach_date": "2016-10-18",
            "close_approach_date_full": "2016-Oct-18 19:31",
            "epoch_date_close_approach": 1476819060000,
            "relative_velocity": {
                "kilometers_per_second": "13.136274797",
                "kilometers_per_hour": "47290.5892691514",
                "miles_per_hour": "29384.5330933791"
            },
            "miss_distance": {
                "astronomical": "0.0971150605",
                "lunar": "37.7777585345",
                "kilometers": "14528206.195721135",
                "miles": "9027408.723516263"
            },
            "orbiting_body": "Earth"
        },
        {
            "close_approach_date": "2020-04-22",
            "close_approach_date_full": "2020-Apr-22 21:53",
            "epoch_date_close_approach": 1587592380000,
            "relative_velocity": {
                "kilometers_per_second": "25.7400110116",
                "kilometers_per_hour": "92664.0396417924",
                "miles_per_hour": "57577.8306318682"
            },
            "miss_distance": {
                "astronomical": "0.3379104559",
                "lunar": "131.4471673451",
                "kilometers": "50550684.453368933",
                "miles": "31410738.7840119554"
            },
            "orbiting_body": "Earth"
        }
    ],
    "orbital_data": {
        "orbit_id": "8",
        "orbit_determination_date": "2017-04-06 08:22:37",
        "first_observation_date": "2016-10-29",
        "last_observation_date": "2016-11-20",
        "data_arc_in_days": 22,
        "observations_used": 43,
        "orbit_uncertainty": "8",
        "minimum_orbit_intersection": ".0303356",
        "jupiter_tisserand_invariant": "4.316",
        "epoch_osculation": "2457694.5",
        "eccentricity": ".5400061799745919",
        "semi_major_axis": "1.528154603267228",
        "inclination": "3.485611956919044",
        "ascending_node_longitude": "182.9966374381466",
        "orbital_period": "690.0004402969582",
        "perihelion_distance": ".7029416735463043",
        "perihelion_argument": "129.8887802204299",
        "aphelion_distance": "2.353367532988152",
        "perihelion_time": "2457632.665915889299",
        "mean_anomaly": "32.26124068887857",
        "mean_motion": ".5217387975072383",
        "equinox": "J2000",
        "orbit_class": {
            "orbit_class_type": "APO",
            "orbit_class_description": "Near-Earth asteroid orbits which cross the Earth’s orbit similar to that of 1862 Apollo",
            "orbit_class_range": "a (semi-major axis) > 1.0 AU; q (perihelion) < 1.017 AU"
        }
    },
    "is_sentry_object": false
}